[{"OBJECT_NAME":"STARLINK-36512","OBJECT_ID":"2026-012M","EPOCH":"2026-03-09T00:40:23.952000","MEAN_MOTION":15.27601615,"ECCENTRICITY":0.00012128,"INCLINATION":43.0007,"RA_OF_ASC_NODE":317.8769,"ARG_OF_PERICENTER":256.6036,"MEAN_ANOMALY":103.4681,"EPHEMERIS_TYPE":0,"CLASSIFICATION_TYPE":"U","NORAD_CAT_ID":67504,"ELEMENT_SET_NO":999,"REV_AT_EPOCH":766,"BSTAR":0.0013654582,"MEAN_MOTION_DOT":0.00037528,"MEAN_MOTION_DDOT":0},{"OBJECT_NAME":"COSMOS 252 DEB","OBJECT_ID":"1968-097CF","EPOCH":"2026-03-09T12:03:06.881472","MEAN_MOTION":13.89760968,"ECCENTRICITY":0.06306282,"INCLINATION":62.7318,"RA_OF_ASC_NODE":125.8805,"ARG_OF_PERICENTER":159.9223,"MEAN_ANOMALY":202.7883,"EPHEMERIS_TYPE":0,"CLASSIFICATION_TYPE":"U","NORAD_CAT_ID":4421,"ELEMENT_SET_NO":999,"REV_AT_EPOCH":54558,"BSTAR":0.0010172608,"MEAN_MOTION_DOT":6.493e-5,"MEAN_MOTION_DDOT":0}]
